ONEWEB-0328             
1 49197U 21083M   25036.08644331 -.00000295  00000+0 -84200-3 0  9993
2 49197  87.8871  59.0472 0001948  88.9062 271.2290 13.13471014166936
ONEWEB-0331             
1 49198U 21083N   25036.38500766  .00000031  00000+0  44642-4 0  9993
2 49198  87.9058  74.2714 0001779  85.7253 274.4082 13.18685802165819
ONEWEB-0333             
1 49199U 21083P   25036.08168302 -.00000288  00000+0 -82249-3 0  9997
2 49199  87.8883  59.0997 0001912  95.6663 264.4684 13.13470880166948
ONEWEB-0334             
1 49200U 21083Q   25036.25002315  .00030311  00000+0  76030-1 0  9997
2 49200  87.9280  13.3380 0002013 111.8056   7.3139 13.19187673172488
ONEWEB-0335             
1 49201U 21083R   25035.46750294 -.00000311  00000+0 -88590-3 0  9991
2 49201  87.8883  59.2109 0001680  85.9822 274.1499 13.13469675165581
ONEWEB-0336             
1 49202U 21083S   25035.51352989  .00000331  00000+0  87222-3 0  9998
2 49202  87.8882  59.1958 0001704  95.2997 264.8327 13.13470632166881
ONEWEB-0337             
1 49203U 21083T   25035.52291555  .00000237  00000+0  61339-3 0  9997
2 49203  87.8881  59.1925 0001892  86.9557 273.1788 13.13470201166888
ONEWEB-0338             
1 49204U 21083U   25036.00123221  .00000025  00000+0  30149-4 0  9997
2 49204  87.9276  13.3831 0002029  95.2333 264.9032 13.20772710172485
ONEWEB-0339             
1 49205U 21083V   25036.44828241  .00001020  00000+0  27572-2 0  9990
2 49205  87.8882  58.9989 0002052  91.0422 269.0942 13.13477075166988
ONEWEB-0340             
1 49206U 21083W   25036.14315396  .00000058  00000+0  11556-3 0  9996
2 49206  87.9058  74.3163 0001851  91.4777 268.6568 13.18685755165758
ONEWEB-0341             
1 49207U 21083X   25036.15104506  .00000043  00000+0  76944-4 0  9994
2 49207  87.9057  74.3259 0002403  85.6234 274.5173 13.18684333165772
ONEWEB-0342             
1 49208U 21083Y   25035.47724348  .00000079  00000+0  16170-3 0  9994
2 49208  87.9266  13.4777 0001909  87.9455 272.1897 13.20770812171083
ONEWEB-0343             
1 49209U 21083Z   25036.14630948  .00000077  00000+0  16219-3 0  9994
2 49209  87.9051  74.3202 0002573  93.6875 266.4552 13.18687020165827
ONEWEB-0344             
1 49210U 21083AA  25036.49114424  .00000151  00000+0  37829-3 0  9993
2 49210  87.8882  59.0131 0002106  82.3314 277.8054 13.13470396166999
ONEWEB-0345             
1 49211U 21083AB  25036.50859387  .00000361  00000+0  95271-3 0  9998
2 49211  87.8880  58.9782 0002162  81.0785 279.0589 13.13470756167008
ONEWEB-0346             
1 49212U 21083AC  25036.53519637  .00000108  00000+0  24186-3 0  9999
2 49212  87.9057  74.2584 0001513  85.4039 274.7266 13.18685938165812
ONEWEB-0348             
1 49213U 21083AD  25036.45260910 -.00000697  00000+0 -17474-2 0  9994
2 49213  87.9279  13.2780 0001818  63.6745 296.4575 13.20763801172541
ONEWEB-0350             
1 49214U 21083AE  25035.52780752  .00000077  00000+0  17633-3 0  9991
2 49214  87.8880  59.1656 0002028  84.1638 275.9722 13.13470257166904
ONEWEB-0351             
1 49215U 21083AF  25035.91586274  .00000029  00000+0  38622-4 0  9997
2 49215  87.9272  13.3737 0002571  98.5538 261.5887 13.20771532172441
ONEWEB-0352             
1 49216U 21083AG  25036.11819380  .00000315  00000+0  82711-3 0  9993
2 49216  87.8882  59.0852 0002275  98.3569 261.7818 13.13470609167078
ONEWEB-0354             
1 49217U 21083AH  25035.63822745  .00000169  00000+0  38425-3 0  9999
2 49217  87.9276  13.4221 0002054  75.9387 284.1975 13.20770978172445
ONEWEB-0355             
1 49218U 21083AJ  25036.14833809 -.00000060  00000+0 -19896-3 0  9993
2 49218  87.8883  59.0780 0002075  90.8485 269.2882 13.13469904166959
ONEWEB-0357             
1 49219U 21083AK  25035.63505905  .00000090  00000+0  19015-3 0  9994
2 49219  87.9273  13.4334 0002059  86.8018 273.3351 13.20769645172432
ONEWEB-0332             
1 49279U 21090A   25036.47396961  .00000010  00000+0 -64564-5 0  9995
2 49279  87.9000  28.4797 0001833  97.3523 262.7815 13.14503699162324
ONEWEB-0347             
1 49280U 21090B   25035.62558662  .00000128  00000+0  28345-3 0  9995
2 49280  87.9275  13.4402 0001653  96.7961 263.3360 13.20769842165366
ONEWEB-0349             
1 49281U 21090C   25036.49049313  .00000157  00000+0  35497-3 0  9998
2 49281  87.9277  13.2717 0001801  87.6847 272.4493 13.20770899165556
ONEWEB-0353             
1 49282U 21090D   25035.70486110 -.00000090  00000+0 -27682-3 0  9997
2 49282  87.9001  28.6189 0001777  97.0452 263.0880 13.14503826163511
ONEWEB-0356             
1 49283U 21090E   25036.48890685  .00000117  00000+0  25598-3 0  9992
2 49283  87.9277  13.2644 0000996  69.1624 290.9615 13.20769872165559
ONEWEB-0358             
1 49284U 21090F   25036.21586382  .00000102  00000+0  21799-3 0  9993
2 49284  87.9276  13.3076 0001748  78.0599 282.0730 13.20770091166247
ONEWEB-0359             
1 49285U 21090G   25036.21270623  .00000041  00000+0  69632-4 0  9993
2 49285  87.9276  13.3226 0002092  74.0142 286.1221 13.20769212166218
ONEWEB-0360             
1 49286U 21090H   25036.20324750  .00000082  00000+0  16955-3 0  9998
2 49286  87.9276  13.3299 0001949  79.9831 280.1522 13.20771089165535
ONEWEB-0361             
1 49287U 21090J   25036.18430302  .00000101  00000+0  21567-3 0  9994
2 49287  87.9280  13.3287 0001723  83.8668 276.2661 13.20770056165522
ONEWEB-0362             
1 49288U 21090K   25036.04652004  .00000055  00000+0  10503-3 0  9991
2 49288  87.9148  43.8120 0002159  90.2697 269.8683 13.19724849162164
ONEWEB-0363             
1 49289U 21090L   25035.89706436  .00000061  00000+0  11782-3 0  9990
2 49289  87.9272  13.3808 0001533  75.2473 284.8830 13.20771211165495
ONEWEB-0364             
1 49290U 21090M   25035.63189888  .00000101  00000+0  21728-3 0  9996
2 49290  87.9278  13.4618 0001677  85.4897 274.6428 13.20770821166582
ONEWEB-0365             
1 49291U 21090N   25036.51089975  .00000071  00000+0  14385-3 0  9998
2 49291  87.9143  43.6844 0001951  93.1279 267.0077 13.19724389162202
ONEWEB-0366             
1 49292U 21090P   25036.00617681 -.00000218  00000+0 -62384-3 0  9991
2 49292  87.9003  28.5700 0001754  87.5115 272.6216 13.14503066163545
ONEWEB-0367             
1 49293U 21090Q   25035.89547438  .00000089  00000+0  18605-3 0  9991
2 49293  87.9274  13.3761 0001891  88.3156 271.8194 13.20769805165484
ONEWEB-0368             
1 49294U 21090R   25036.47470200  .00000036  00000+0  57621-4 0  9993
2 49294  87.9278  13.2932 0001241 108.9477 251.1790 13.20770208166711
ONEWEB-0369             
1 49295U 21090S   25035.52054118  .00000014  00000+0  18417-5 0  9992
2 49295  87.9149  43.9010 0001876  93.7525 266.3822 13.19724317162061
ONEWEB-0370             
1 49296U 21090T   25035.90497259  .00000030  00000+0  40916-4 0  9998
2 49296  87.9278  13.3792 0002205  80.8442 279.2941 13.20772093165520
ONEWEB-0371             
1 49297U 21090U   25036.05915965  .00000083  00000+0  17617-3 0  9994
2 49297  87.9149  43.7833 0001997  91.8624 268.2737 13.19724838162173
ONEWEB-0372             
1 49298U 21090V   25035.66650375  .00000125  00000+0  27667-3 0  9995
2 49298  87.9275  13.4356 0001842  89.0756 271.0589 13.20771359165466
ONEWEB-0373             
1 49299U 21090W   25036.45104590  .00000054  00000+0  99943-4 0  9995
2 49299  87.9277  13.2927 0001601  80.6050 279.5264 13.20771685166756
ONEWEB-0374             
1 49300U 21090X   25036.45019667 -.00000091  00000+0 -27896-3 0  9998
2 49300  87.9004  28.4637 0001258  88.4058 271.7216 13.14502824163595
ONEWEB-0375             
1 49301U 21090Y   25035.90810879  .00000048  00000+0  87324-4 0  9995
2 49301  87.9275  13.3778 0001465  64.9526 295.1759 13.20770833166177
ONEWEB-0376             
1 49302U 21090Z   25036.05756853  .00000038  00000+0  62956-4 0  9997
2 49302  87.9141  43.7768 0001997  97.8196 262.3164 13.19724307162168
ONEWEB-0377             
1 49303U 21090AA  25035.89403454  .00000035  00000+0  54540-4 0  9992
2 49303  87.9276  13.3731 0002000  77.5231 282.6126 13.20769754166155
ONEWEB-0378             
1 49304U 21090AB  25035.91612995 -.00000068  00000+0 -19862-3 0  9993
2 49304  87.9277  13.3746 0001743  81.7662 278.3669 13.20770450165463
ONEWEB-0379             
1 49305U 21090AC  25035.91261115 -.00000052  00000+0 -17411-3 0  9999
2 49305  87.9002  28.5748 0001776  88.0026 272.1307 13.14503370163535
ONEWEB-0380             
1 49306U 21090AD  25036.05443638  .00000028  00000+0  37413-4 0  9994
2 49306  87.9147  43.7968 0001822  84.3478 275.7862 13.19726316162133
ONEWEB-0381             
1 49307U 21090AE  25036.42105170  .00000120  00000+0  26432-3 0  9993
2 49307  87.9279  13.2760 0001852  79.0666 281.0676 13.20772622165550
ONEWEB-0382             
1 49308U 21090AF  25036.48417397  .00000109  00000+0  23526-3 0  9995
2 49308  87.9278  13.2588 0001479  81.2183 278.9118 13.20770739165566
ONEWEB-0383             
1 49309U 21090AG  25035.90624981  .00000061  00000+0  12926-3 0  9990
2 49309  87.9002  28.5595 0001627  89.3973 270.7344 13.14505856163557
ONEWEB-0384             
1 49310U 21090AH  25035.87492545  .00000138  00000+0  30644-3 0  9999
2 49310  87.9277  13.3947 0001350  80.0214 280.1072 13.20775273165492
ONEWEB-0385             
1 49311U 21090AJ  25036.17327148  .00000085  00000+0  17639-3 0  9990
2 49311  87.9277  13.3364 0001716  84.5412 275.5918 13.20771962165512
ONEWEB-0386             
1 49312U 21090AK  25036.49365464  .00000162  00000+0  36546-3 0  9993
2 49312  87.9271  13.2518 0001552  84.1880 275.9431 13.20771419165566
ONEWEB-0387             
1 49313U 21090AL  25036.47785843  .00000077  00000+0  15639-3 0  9994
2 49313  87.9262  13.3301 0001768  73.3257 286.8070 13.20769812165569
ONEWEB-0388             
1 49314U 21090AM  25036.04966342 -.00000362  00000+0 -93537-3 0  9995
2 49314  87.9151  43.8025 0001665  90.0413 270.0910 13.19725560162132
